[{"OBJECT_NAME":"KUIPER-00043","OBJECT_ID":"2025-134E","EPOCH":"2026-03-09T22:00:01.999584","MEAN_MOTION":14.81364688,"ECCENTRICITY":0.00016525,"INCLINATION":51.9007,"RA_OF_ASC_NODE":232.0418,"ARG_OF_PERICENTER":110.2008,"MEAN_ANOMALY":148.1192,"EPHEMERIS_TYPE":0,"CLASSIFICATION_TYPE":"U","NORAD_CAT_ID":64504,"ELEMENT_SET_NO":999,"REV_AT_EPOCH":516,"BSTAR":0.0028433581,"MEAN_MOTION_DOT":0.0002228,"MEAN_MOTION_DDOT":0},{"OBJECT_NAME":"FENGYUN 1C DEB","OBJECT_ID":"1999-025AHJ","EPOCH":"2026-03-09T18:03:49.415328","MEAN_MOTION":14.96033857,"ECCENTRICITY":0.01248359,"INCLINATION":98.7826,"RA_OF_ASC_NODE":350.0057,"ARG_OF_PERICENTER":174.7814,"MEAN_ANOMALY":185.4738,"EPHEMERIS_TYPE":0,"CLASSIFICATION_TYPE":"U","NORAD_CAT_ID":30496,"ELEMENT_SET_NO":999,"REV_AT_EPOCH":2444,"BSTAR":0.00050780955,"MEAN_MOTION_DOT":6.595e-5,"MEAN_MOTION_DDOT":0}]
